start=new Date('2022-09-28T00:00:00.000Z').valueOf();
sats=[{"DECAY_DATE":null,"MEAN_ELEMENT_THEORY":"SGP4","EPHEMERIS_TYPE":"0","OBJECT_ID":"2022-114K","OBJECT_NAME":"STARLINK-4764","TIME_SYSTEM":"UTC","OBJECT_TYPE":"PAYLOAD","ARG_OF_PERICENTER":"50.3035","LAUNCH_DATE":"2022-09-19","CLASSIFICATION_TYPE":"U","RCS_SIZE":null,"INCLINATION":"53.2171","APOAPSIS":"340.400","SEMIMAJOR_AXIS":"6717.815","REV_AT_EPOCH":"130","FILE":"3585280","MEAN_MOTION_DDOT":"0.0000000000000","PERIAPSIS":"338.960","ECCENTRICITY":"0.00010720","RA_OF_ASC_NODE":"214.9022","TLE_LINE1":"1 53827U 22114K   22270.91668981 -.01033253  00000-0 -69870-2 0  9997","TLE_LINE2":"2 53827  53.2171 214.9022 0001072  50.3035 142.3575 15.76742147  1307","SITE":"AFETR","EPOCH":"2022-09-27T22:00:01.999584","GP_ID":"213669769","NORAD_CAT_ID":"53827","MEAN_MOTION":"15.76742147","COUNTRY_CODE":"US","BSTAR":"-0.00698700000000","MEAN_MOTION_DOT":"-0.01033253","PERIOD":"91.328","REF_FRAME":"TEME","CENTER_NAME":"EARTH","MEAN_ANOMALY":"142.3575","ELEMENT_SET_NO":"999"},{"APOAPSIS":"342.533","SEMIMAJOR_AXIS":"6717.281","REV_AT_EPOCH":"197","INCLINATION":"53.2170","RCS_SIZE":null,"FILE":"3585254","LAUNCH_DATE":"2022-09-19","CLASSIFICATION_TYPE":"U","OBJECT_ID":"2022-114L","EPHEMERIS_TYPE":"0","TIME_SYSTEM":"UTC","OBJECT_TYPE":"PAYLOAD","ARG_OF_PERICENTER":"268.6245","OBJECT_NAME":"STARLINK-4760","MEAN_ELEMENT_THEORY":"SGP4","DECAY_DATE":null,"BSTAR":"-0.00802990000000","MEAN_MOTION_DOT":"-0.01181862","PERIOD":"91.317","ELEMENT_SET_NO":"999","REF_FRAME":"TEME","CENTER_NAME":"EARTH","MEAN_ANOMALY":"285.9971","MEAN_MOTION":"15.76930165","COUNTRY_CODE":"US","SITE":"AFETR","GP_ID":"213643810","EPOCH":"2022-09-27T22:00:01.999584","NORAD_CAT_ID":"53828","RA_OF_ASC_NODE":"214.8991","ECCENTRICITY":"0.00050420","MEAN_MOTION_DDOT":"0.0000000000000","PERIAPSIS":"335.759","TLE_LINE2":"2 53828  53.2170 214.8991 0005042 268.6245 285.9971 15.76930165  1975","TLE_LINE1":"1 53828U 22114L   22270.91668981 -.01181862  00000-0 -80299-2 0  9996"},{"NORAD_CAT_ID":"53829","EPOCH":"2022-09-27T22:00:01.999584","GP_ID":"213643806","SITE":"AFETR","TLE_LINE1":"1 53829U 22114M   22270.91668981 -.00941849  00000-0 -64318-2 0  9999","TLE_LINE2":"2 53829  53.2173 214.9023 0001099  79.3258 113.8832 15.76695421  1973","MEAN_MOTION_DDOT":"0.0000000000000","PERIAPSIS":"339.075","RA_OF_ASC_NODE":"214.9023","ECCENTRICITY":"0.00010990","MEAN_ANOMALY":"113.8832","CENTER_NAME":"EARTH","REF_FRAME":"TEME","ELEMENT_SET_NO":"999","PERIOD":"91.330","MEAN_MOTION_DOT":"-0.00941849","BSTAR":"-0.00643180000000","COUNTRY_CODE":"US","MEAN_MOTION":"15.76695421","OBJECT_NAME":"STARLINK-4759","ARG_OF_PERICENTER":"79.3258","OBJECT_TYPE":"PAYLOAD","TIME_SYSTEM":"UTC","EPHEMERIS_TYPE":"0","OBJECT_ID":"2022-114M","DECAY_DATE":null,"MEAN_ELEMENT_THEORY":"SGP4","FILE":"3585254","RCS_SIZE":null,"INCLINATION":"53.2173","REV_AT_EPOCH":"197","SEMIMAJOR_AXIS":"6717.948","APOAPSIS":"340.551","CLASSIFICATION_TYPE":"U","LAUNCH_DATE":"2022-09-19"},{"CLASSIFICATION_TYPE":"U","LAUNCH_DATE":"2022-09-19","FILE":"3585280","REV_AT_EPOCH":"130","APOAPSIS":"343.009","SEMIMAJOR_AXIS":"6717.081","INCLINATION":"53.2171","RCS_SIZE":null,"DECAY_DATE":null,"MEAN_ELEMENT_THEORY":"SGP4","ARG_OF_PERICENTER":"269.4561","TIME_SYSTEM":"UTC","OBJECT_TYPE":"PAYLOAD","OBJECT_NAME":"STARLINK-4761","EPHEMERIS_TYPE":"0","OBJECT_ID":"2022-114N","COUNTRY_CODE":"US","MEAN_MOTION":"15.77000848","ELEMENT_SET_NO":"999","CENTER_NAME":"EARTH","MEAN_ANOMALY":"286.1651","REF_FRAME":"TEME","PERIOD":"91.313","MEAN_MOTION_DOT":"-0.01232924","BSTAR":"-0.00838850000000","TLE_LINE2":"2 53830  53.2171 214.8972 0006050 269.4561 286.1651 15.77000848  1300","TLE_LINE1":"1 53830U 22114N   22270.91668981 -.01232924  00000-0 -83885-2 0  9999","RA_OF_ASC_NODE":"214.8972","ECCENTRICITY":"0.00060500","MEAN_MOTION_DDOT":"0.0000000000000","PERIAPSIS":"334.882","NORAD_CAT_ID":"53830","EPOCH":"2022-09-27T22:00:01.999584","GP_ID":"213669202","SITE":"AFETR"},{"EPHEMERIS_TYPE":"0","OBJECT_ID":"2022-114P","OBJECT_NAME":"STARLINK-4649","OBJECT_TYPE":"PAYLOAD","TIME_SYSTEM":"UTC","ARG_OF_PERICENTER":"269.1758","DECAY_DATE":null,"MEAN_ELEMENT_THEORY":"SGP4","INCLINATION":"53.2171","RCS_SIZE":null,"SEMIMAJOR_AXIS":"6717.358","APOAPSIS":"343.514","REV_AT_EPOCH":"197","FILE":"3585254","LAUNCH_DATE":"2022-09-19","CLASSIFICATION_TYPE":"U","SITE":"AFETR","EPOCH":"2022-09-27T22:00:01.999584","GP_ID":"213644079","NORAD_CAT_ID":"53831","PERIAPSIS":"334.932","MEAN_MOTION_DDOT":"0.0000000000000","ECCENTRICITY":"0.00063880","RA_OF_ASC_NODE":"214.9010","TLE_LINE1":"1 53831U 22114P   22270.91668981 -.01197160  00000-0 -81482-2 0  9993","TLE_LINE2":"2 53831  53.2171 214.9010 0006388 269.1758 284.4350 15.76903177  1970","MEAN_MOTION_DOT":"-0.01197160","BSTAR":"-0.00814820000000","PERIOD":"91.318","REF_FRAME":"TEME","CENTER_NAME":"EARTH","MEAN_ANOMALY":"284.4350","ELEMENT_SET_NO":"999","MEAN_MOTION":"15.76903177","COUNTRY_CODE":"US"},{"MEAN_ELEMENT_THEORY":"SGP4","DECAY_DATE":null,"EPHEMERIS_TYPE":"0","OBJECT_ID":"2022-114Q","OBJECT_NAME":"STARLINK-4747","TIME_SYSTEM":"UTC","OBJECT_TYPE":"PAYLOAD","ARG_OF_PERICENTER":"270.3325","LAUNCH_DATE":"2022-09-19","CLASSIFICATION_TYPE":"U","INCLINATION":"53.2170","RCS_SIZE":null,"APOAPSIS":"342.494","SEMIMAJOR_AXIS":"6716.739","REV_AT_EPOCH":"197","FILE":"3585254","MEAN_MOTION_DDOT":"0.0000000000000","PERIAPSIS":"334.714","RA_OF_ASC_NODE":"214.8953","ECCENTRICITY":"0.00057920","TLE_LINE1":"1 53832U 22114Q   22270.91668981 -.01362596  00000-0 -91512-2 0  9996","TLE_LINE2":"2 53832  53.2170 214.8953 0005792 270.3325 286.2539 15.77121123  1970","SITE":"AFETR","EPOCH":"2022-09-27T22:00:01.999584","GP_ID":"213643809","NORAD_CAT_ID":"53832","MEAN_MOTION":"15.77121123","COUNTRY_CODE":"US","BSTAR":"-0.00915120000000","MEAN_MOTION_DOT":"-0.01362596","PERIOD":"91.306","REF_FRAME":"TEME","CENTER_NAME":"EARTH","MEAN_ANOMALY":"286.2539","ELEMENT_SET_NO":"999"},{"CLASSIFICATION_TYPE":"U","LAUNCH_DATE":"2022-09-19","FILE":"3585254","REV_AT_EPOCH":"197","SEMIMAJOR_AXIS":"6717.257","APOAPSIS":"342.407","INCLINATION":"53.2170","RCS_SIZE":null,"DECAY_DATE":null,"MEAN_ELEMENT_THEORY":"SGP4","ARG_OF_PERICENTER":"267.8715","OBJECT_TYPE":"PAYLOAD","TIME_SYSTEM":"UTC","OBJECT_NAME":"STARLINK-4771","EPHEMERIS_TYPE":"0","OBJECT_ID":"2022-114R","COUNTRY_CODE":"US","MEAN_MOTION":"15.76938608","ELEMENT_SET_NO":"999","CENTER_NAME":"EARTH","MEAN_ANOMALY":"287.2670","REF_FRAME":"TEME","PERIOD":"91.316","MEAN_MOTION_DOT":"-0.01173999","BSTAR":"-0.00796780000000","TLE_LINE2":"2 53833  53.2170 214.8976 0004890 267.8715 287.2670 15.76938608  1978","TLE_LINE1":"1 53833U 22114R   22270.91668981 -.01173999  00000-0 -79678-2 0  9993","ECCENTRICITY":"0.00048900","RA_OF_ASC_NODE":"214.8976","PERIAPSIS":"335.838","MEAN_MOTION_DDOT":"0.0000000000000","NORAD_CAT_ID":"53833","EPOCH":"2022-09-27T22:00:01.999584","GP_ID":"213644073","SITE":"AFETR"},{"SEMIMAJOR_AXIS":"6716.636","APOAPSIS":"342.364","REV_AT_EPOCH":"197","INCLINATION":"53.2171","RCS_SIZE":null,"FILE":"3585254","LAUNCH_DATE":"2022-09-19","CLASSIFICATION_TYPE":"U","EPHEMERIS_TYPE":"0","OBJECT_ID":"2022-114S","TIME_SYSTEM":"UTC","OBJECT_TYPE":"PAYLOAD","ARG_OF_PERICENTER":"270.3173","OBJECT_NAME":"STARLINK-4737","DECAY_DATE":null,"MEAN_ELEMENT_THEORY":"SGP4","MEAN_MOTION_DOT":"-0.01363374","BSTAR":"-0.00914240000000","PERIOD":"91.304","ELEMENT_SET_NO":"999","REF_FRAME":"TEME","CENTER_NAME":"EARTH","MEAN_ANOMALY":"287.2729","MEAN_MOTION":"15.77157422","COUNTRY_CODE":"US","SITE":"AFETR","GP_ID":"213644076","EPOCH":"2022-09-27T22:00:01.999584","NORAD_CAT_ID":"53834","ECCENTRICITY":"0.00057520","RA_OF_ASC_NODE":"214.8934","MEAN_MOTION_DDOT":"0.0000000000000","PERIAPSIS":"334.638","TLE_LINE2":"2 53834  53.2171 214.8934 0005752 270.3173 287.2729 15.77157422  1972","TLE_LINE1":"1 53834U 22114S   22270.91668981 -.01363374  00000-0 -91424-2 0  9995"},{"OBJECT_NAME":"STARLINK-4783","ARG_OF_PERICENTER":"270.3931","OBJECT_TYPE":"PAYLOAD","TIME_SYSTEM":"UTC","EPHEMERIS_TYPE":"0","OBJECT_ID":"2022-114T","MEAN_ELEMENT_THEORY":"SGP4","DECAY_DATE":null,"FILE":"3585254","INCLINATION":"53.2170","RCS_SIZE":null,"REV_AT_EPOCH":"197","APOAPSIS":"342.140","SEMIMAJOR_AXIS":"6716.804","CLASSIFICATION_TYPE":"U","LAUNCH_DATE":"2022-09-19","NORAD_CAT_ID":"53835","GP_ID":"213644074","EPOCH":"2022-09-27T22:00:01.999584","SITE":"AFETR","TLE_LINE1":"1 53835U 22114T   22270.91668981 -.01354677  00000-0 -91052-2 0  9999","TLE_LINE2":"2 53835  53.2170 214.8958 0005168 270.3931 285.6922 15.77098411  1970","PERIAPSIS":"335.197","MEAN_MOTION_DDOT":"0.0000000000000","ECCENTRICITY":"0.00051680","RA_OF_ASC_NODE":"214.8958","MEAN_ANOMALY":"285.6922","CENTER_NAME":"EARTH","REF_FRAME":"TEME","ELEMENT_SET_NO":"999","PERIOD":"91.307","MEAN_MOTION_DOT":"-0.01354677","BSTAR":"-0.00910520000000","COUNTRY_CODE":"US","MEAN_MOTION":"15.77098411"},{"INCLINATION":"53.2170","RCS_SIZE":null,"REV_AT_EPOCH":"197","APOAPSIS":"342.767","SEMIMAJOR_AXIS":"6716.942","FILE":"3585254","LAUNCH_DATE":"2022-09-19","CLASSIFICATION_TYPE":"U","EPHEMERIS_TYPE":"0","OBJECT_ID":"2022-114U","OBJECT_NAME":"STARLINK-4778","ARG_OF_PERICENTER":"269.7546","OBJECT_TYPE":"PAYLOAD","TIME_SYSTEM":"UTC","DECAY_DATE":null,"MEAN_ELEMENT_THEORY":"SGP4","PERIOD":"91.310","MEAN_MOTION_DOT":"-0.01165404","BSTAR":"-0.00785720000000","CENTER_NAME":"EARTH","MEAN_ANOMALY":"288.9210","REF_FRAME":"TEME","ELEMENT_SET_NO":"999","MEAN_MOTION":"15.77049771","COUNTRY_CODE":"US","GP_ID":"213644072","EPOCH":"2022-09-27T22:00:01.999584","SITE":"AFETR","NORAD_CAT_ID":"53836","MEAN_MOTION_DDOT":"0.0000000000000","PERIAPSIS":"334.846","ECCENTRICITY":"0.00058960","RA_OF_ASC_NODE":"214.8909","TLE_LINE1":"1 53836U 22114U   22270.91668981 -.01165404  00000-0 -78572-2 0  9990","TLE_LINE2":"2 53836  53.2170 214.8909 0005896 269.7546 288.9210 15.77049771  1970"}];
